{"type":"FeatureCollection","features":[{"type":"Feature","id":"way/97507956","properties":{"type":"way","id":97507956,"tags":{"addr:city":"Gent","addr:housenumber":"16","addr:postcode":"9000","addr:street":"Klein Turkije","amenity":"bar","building":"yes","name":"Missy Sippy Blues & Roots Club","opening_hours":"Mo off; Tu-Su 14:00+","website":"http://missy-sippy.be/"},"relations":[],"meta":{}},"geometry":{"type":"Polygon","coordinates":[[[3.7226341,51.0543143],[3.7227465,51.0542994],[3.7227961,51.0544276],[3.7226928,51.0544385],[3.7226341,51.0543143]]]}},{"type":"Feature","id":"way/111680947","properties":{"type":"way","id":111680947,"tags":{"addr:housenumber":"48","addr:street":"Voetweg","amenity":"pub","building":"yes","name":"Molotov","opening_hours":"Mo-Su 00:00-05:00,11:30-24:00; SH Mo-Su 00:00-05:00,20:00-24:00","payment:bitcoin":"yes","website":"https://www.facebook.com/pages/Molotov/129210870501702?sk=info&tab=overview"},"relations":[],"meta":{}},"geometry":{"type":"Polygon","coordinates":[[[3.7264971,51.0405606],[3.7265119,51.0404791],[3.7265247,51.040408],[3.7265267,51.0403983],[3.7266016,51.0404033],[3.7265901,51.0404587],[3.7265659,51.0404567],[3.7265584,51.0404925],[3.7265998,51.0404959],[3.7265845,51.0405685],[3.7264971,51.0405606]]]}},{"type":"Feature","id":"way/111681000","properties":{"type":"way","id":111681000,"tags":{"addr:housenumber":"15","addr:street":"Kramersplein","amenity":"pub","building":"yes","name":"Yucca"},"relations":[],"meta":{}},"geometry":{"type":"Polygon","coordinates":[[[3.7263244,51.041409],[3.7261934,51.041412],[3.7261887,51.0413408],[3.7262989,51.0413378],[3.7263098,51.0413438],[3.7263207,51.0413498],[3.7263244,51.041409]]]}},{"type":"Feature","id":"way/111681337","properties":{"type":"way","id":111681337,"tags":{"amenity":"pub","building":"yes","name":"Backdoor"},"relations":[],"meta":{}},"geometry":{"type":"Polygon","coordinates":[[[3.7244387,51.0434027],[3.7245366,51.0434322],[3.7245621,51.0434676],[3.7245468,51.043493],[3.7244709,51.0434718],[3.7244789,51.0434617],[3.7244146,51.0434406],[3.7244387,51.0434027]]]}},{"type":"Feature","id":"way/111681340","properties":{"type":"way","id":111681340,"tags":{"addr:housenumber":"1","addr:street":"Kazernenstraat","amenity":"pub","building":"yes","name":"Defoo"},"relations":[],"meta":{}},"geometry":{"type":"Polygon","coordinates":[[[3.7246718,51.0432722],[3.7246316,51.0433346],[3.7245793,51.043343],[3.724472,51.0433076],[3.7245525,51.0432123],[3.7246112,51.0432519],[3.7246718,51.0432722]]]}},{"type":"Feature","id":"way/111681685","properties":{"type":"way","id":111681685,"tags":{"amenity":"pub","building":"yes","name":"Den drummer"},"relations":[],"meta":{}},"geometry":{"type":"Polygon","coordinates":[[[3.7271362,51.0397743],[3.7272198,51.0397795],[3.7272092,51.039849],[3.7271246,51.0398435],[3.7271362,51.0397743]]]}},{"type":"Feature","id":"way/111681688","properties":{"type":"way","id":111681688,"tags":{"amenity":"pub","building":"yes","name":"Porter House (Irish Pub)","wheelchair":"yes"},"relations":[],"meta":{}},"geometry":{"type":"Polygon","coordinates":[[[3.7259303,51.03979],[3.7259341,51.0397602],[3.7259409,51.0396997],[3.7261123,51.0397104],[3.726102,51.0398094],[3.7260577,51.0398086],[3.7260577,51.0397943],[3.7259303,51.03979]]]}},{"type":"Feature","id":"way/111682782","properties":{"type":"way","id":111682782,"tags":{"amenity":"pub","building":"yes","name":"Abou Simbel"},"relations":[],"meta":{}},"geometry":{"type":"Polygon","coordinates":[[[3.7257359,51.0398501],[3.7257495,51.0398079],[3.7258754,51.0398236],[3.725873,51.0398296],[3.7258886,51.0398299],[3.7258779,51.0398665],[3.7258607,51.0398655],[3.7257359,51.0398501]]]}},{"type":"Feature","id":"way/111682784","properties":{"type":"way","id":111682784,"tags":{"addr:city":"Gent","addr:housenumber":"47","addr:postcode":"9000","addr:street":"Overpoortstraat","amenity":"bar","building":"yes","name":"Apache","opening_hours":"Mo 20:00-24:00; Tu-Fr 00:00-05:00,20:00-24:00; Sa 00:00-05:00","phone":"+32473473001","website":"https://www.facebook.com/ApacheGent"},"relations":[],"meta":{}},"geometry":{"type":"Polygon","coordinates":[[[3.7257681,51.0397538],[3.7257828,51.0397057],[3.7258204,51.0396922],[3.7259409,51.0396997],[3.7259341,51.0397602],[3.7259169,51.039758],[3.7259129,51.0397707],[3.7258983,51.039769],[3.7257681,51.0397538]]]}},{"type":"Feature","id":"way/111682786","properties":{"type":"way","id":111682786,"tags":{"amenity":"pub","building":"yes","name":"'t Genoegen"},"relations":[],"meta":{}},"geometry":{"type":"Polygon","coordinates":[[[3.7256387,51.0396448],[3.7254419,51.0396096],[3.7254537,51.0395666],[3.7255775,51.0395837],[3.725652,51.0396049],[3.7256387,51.0396448]]]}},{"type":"Feature","id":"way/111682787","properties":{"type":"way","id":111682787,"tags":{"amenity":"pub","building":"yes","name":"Overpoort Bowl"},"relations":[],"meta":{}},"geometry":{"type":"Polygon","coordinates":[[[3.7249755,51.0404419],[3.7250144,51.0403432],[3.7253454,51.0403882],[3.7254068,51.0403969],[3.7253966,51.0404242],[3.7254931,51.0404393],[3.7254878,51.0405169],[3.7249755,51.0404419]]]}},{"type":"Feature","id":"way/111695943","properties":{"type":"way","id":111695943,"tags":{"amenity":"bar","building":"yes","name":"Point Final"},"relations":[],"meta":{}},"geometry":{"type":"Polygon","coordinates":[[[3.7256498,51.0401447],[3.7256518,51.0401015],[3.7257986,51.040105],[3.725815,51.0401051],[3.725815,51.0401481],[3.7256498,51.0401447]]]}},{"type":"Feature","id":"way/111695944","properties":{"type":"way","id":111695944,"tags":{"amenity":"pub","building":"yes","name":"De Coulissen"},"relations":[],"meta":{}},"geometry":{"type":"Polygon","coordinates":[[[3.725657,51.0400252],[3.7256693,51.0399456],[3.7258752,51.0399549],[3.7258705,51.0399896],[3.7258703,51.0399962],[3.7257694,51.0399915],[3.7257648,51.0400306],[3.725657,51.0400252]]]}},{"type":"Feature","id":"way/111695945","properties":{"type":"way","id":111695945,"tags":{"amenity":"pub","building":"yes","name":"'t Steegske/De frontline"},"relations":[],"meta":{}},"geometry":{"type":"Polygon","coordinates":[[[3.7260308,51.0399519],[3.7261769,51.0399563],[3.72617,51.0400461],[3.7261052,51.0400441],[3.7258669,51.0400369],[3.7258705,51.0399896],[3.7260276,51.0399944],[3.7260308,51.0399519]]]}},{"type":"Feature","id":"way/111695947","properties":{"type":"way","id":111695947,"tags":{"amenity":"pub","building":"yes","name":"Père Total"},"relations":[],"meta":{}},"geometry":{"type":"Polygon","coordinates":[[[3.725657,51.0400252],[3.7257648,51.0400306],[3.7258007,51.040032],[3.7257986,51.040105],[3.7256518,51.0401015],[3.725657,51.0400252]]]}},{"type":"Feature","id":"way/111695949","properties":{"type":"way","id":111695949,"tags":{"amenity":"bar","building":"yes","name":"A pro po"},"relations":[],"meta":{}},"geometry":{"type":"Polygon","coordinates":[[[3.7256473,51.0402006],[3.7256498,51.0401447],[3.725815,51.0401481],[3.7258137,51.0402017],[3.7256473,51.0402006]]]}},{"type":"Feature","id":"way/112183248","properties":{"type":"way","id":112183248,"tags":{"amenity":"pub","building":"yes","name":"Twitch"},"relations":[],"meta":{}},"geometry":{"type":"Polygon","coordinates":[[[3.7256426,51.0403036],[3.7256455,51.0402391],[3.7259269,51.0402453],[3.7259258,51.040265],[3.7258856,51.0402641],[3.7258851,51.0402731],[3.7258278,51.0402718],[3.7258258,51.040307],[3.7258109,51.0403066],[3.7256426,51.0403036]]]}},{"type":"Feature","id":"way/112183252","properties":{"type":"way","id":112183252,"tags":{"amenity":"pub","building":"yes","name":"Vagant"},"relations":[],"meta":{}},"geometry":{"type":"Polygon","coordinates":[[[3.7256323,51.0404282],[3.7256409,51.0403405],[3.7257685,51.040344],[3.7257634,51.0404226],[3.7257394,51.0404222],[3.7257065,51.0404217],[3.7257047,51.0404302],[3.7256323,51.0404282]]]}},{"type":"Feature","id":"way/121792079","properties":{"type":"way","id":121792079,"tags":{"amenity":"pub","building":"yes","name":"'t Putje"},"relations":[],"meta":{}},"geometry":{"type":"Polygon","coordinates":[[[3.7253657,51.0400623],[3.7253767,51.0399867],[3.7255253,51.0400015],[3.725519,51.0400747],[3.7253657,51.0400623]]]}},{"type":"Feature","id":"way/121792080","properties":{"type":"way","id":121792080,"tags":{"amenity":"pub","building":"yes","name":"Boom-Boom"},"relations":[],"meta":{}},"geometry":{"type":"Polygon","coordinates":[[[3.7253351,51.0403314],[3.7253406,51.0402918],[3.7255016,51.0403139],[3.7254987,51.0403559],[3.7253654,51.0403358],[3.7253351,51.0403314]]]}},{"type":"Feature","id":"way/121792081","properties":{"type":"way","id":121792081,"tags":{"amenity":"bar","building":"yes","name":"Cuba Libre"},"relations":[],"meta":{}},"geometry":{"type":"Polygon","coordinates":[[[3.7254101,51.0399307],[3.725427,51.0398814],[3.7254081,51.0398779],[3.7254259,51.0398304],[3.7255698,51.0398549],[3.7255434,51.0399451],[3.7254101,51.0399307]]]}},{"type":"Feature","id":"way/121792084","properties":{"type":"way","id":121792084,"tags":{"amenity":"bar","building":"yes","name":"Etage"},"relations":[],"meta":{}},"geometry":{"type":"Polygon","coordinates":[[[3.7253249,51.0402117],[3.7253446,51.0401648],[3.7253328,51.0401633],[3.7253595,51.0400946],[3.7255152,51.0401138],[3.7255067,51.0402388],[3.7253249,51.0402117]]]}},{"type":"Feature","id":"way/121792085","properties":{"type":"way","id":121792085,"tags":{"amenity":"bar","building":"yes","name":"Latin Quarter"},"relations":[],"meta":{}},"geometry":{"type":"Polygon","coordinates":[[[3.7256075,51.0397382],[3.7254113,51.0397145],[3.7251371,51.0396544],[3.7251647,51.039597],[3.7254281,51.0396547],[3.7256255,51.0396845],[3.7256075,51.0397382]]]}},{"type":"Feature","id":"way/121792086","properties":{"type":"way","id":121792086,"tags":{"amenity":"bar","building":"yes","name":"Le Bleu"},"relations":[],"meta":{}},"geometry":{"type":"Polygon","coordinates":[[[3.7252848,51.0402518],[3.7253013,51.0402078],[3.7253249,51.0402117],[3.7255067,51.0402388],[3.725504,51.0402789],[3.7253479,51.0402595],[3.7252848,51.0402518]]]}},{"type":"Feature","id":"way/121792088","properties":{"type":"way","id":121792088,"tags":{"amenity":"pub","building":"yes","name":"Pallieter"},"relations":[],"meta":{}},"geometry":{"type":"Polygon","coordinates":[[[3.7253767,51.0399867],[3.7253924,51.0399288],[3.7254101,51.0399307],[3.7255434,51.0399451],[3.7255253,51.0400015],[3.7253767,51.0399867]]]}},{"type":"Feature","id":"way/121792089","properties":{"type":"way","id":121792089,"tags":{"amenity":"pub","building":"yes","name":"Salamander"},"relations":[],"meta":{}},"geometry":{"type":"Polygon","coordinates":[[[3.7253595,51.0400946],[3.7253657,51.0400623],[3.725519,51.0400747],[3.7255152,51.0401138],[3.7253595,51.0400946]]]}},{"type":"Feature","id":"way/121792090","properties":{"type":"way","id":121792090,"tags":{"amenity":"pub","building":"yes","name":"Tam-Tam"},"relations":[],"meta":{}},"geometry":{"type":"Polygon","coordinates":[[[3.7254281,51.0396547],[3.7254419,51.0396096],[3.7256387,51.0396448],[3.7256255,51.0396845],[3.7254281,51.0396547]]]}},{"type":"Feature","id":"way/175194942","properties":{"type":"way","id":175194942,"tags":{"addr:city":"Gent","addr:country":"BE","addr:housenumber":"120","addr:postcode":"9000","addr:street":"Muinkkaai","amenity":"pub","building":"yes","name":"Bavet","wheelchair":"yes"},"relations":[],"meta":{}},"geometry":{"type":"Polygon","coordinates":[[[3.7296169,51.0415904],[3.7295874,51.0416494],[3.7294664,51.0416349],[3.7294773,51.0415835],[3.729515,51.041571],[3.7296169,51.0415904]]]}},{"type":"Feature","id":"way/210985927","properties":{"type":"way","id":210985927,"tags":{"addr:housenumber":"17;18","addr:street":"Ter Platen","amenity":"pub","building":"yes","name":"De Brouwzaele","wheelchair":"no"},"relations":[],"meta":{}},"geometry":{"type":"Polygon","coordinates":[[[3.7297663,51.0401525],[3.7297541,51.0400309],[3.7298656,51.0400273],[3.7299672,51.0400527],[3.7298994,51.0401531],[3.7297663,51.0401525]]]}},{"type":"Feature","id":"way/231932512","properties":{"type":"way","id":231932512,"tags":{"OnroerendErfgoed:criteria":"M","addr:housenumber":"13","addr:street":"Walpoortstraat","amenity":"pub","building":"yes","description":"Enkelhuis","heritage":"4","heritage:operator":"OnroerendErfgoed","heritage:website":"https://inventaris.onroerenderfgoed.be/dibe/relict/21323","name":"Café Romain","ref:OnroerendErfgoed":"21323"},"relations":[],"meta":{}},"geometry":{"type":"Polygon","coordinates":[[[3.7271283,51.0489549],[3.7271773,51.0489027],[3.7273189,51.0489489],[3.7272749,51.0490042],[3.7271283,51.0489549]]]}},{"type":"Feature","id":"way/289225387","properties":{"type":"way","id":289225387,"tags":{"amenity":"pub","building":"yes","name":"De Gloriette"},"relations":[],"meta":{}},"geometry":{"type":"Polygon","coordinates":[[[3.6294647,51.0750503],[3.6296871,51.0752911],[3.629577,51.0753313],[3.6293546,51.0750904],[3.6294647,51.0750503]]]}},{"type":"Feature","id":"way/329892435","properties":{"type":"way","id":329892435,"tags":{"addr:housenumber":"3","addr:street":"Ter Platen","amenity":"bar","building":"yes","building:levels":"3","description":"cocktailbar","name":"Hollywood","roof:levels":"1"},"relations":[],"meta":{}},"geometry":{"type":"Polygon","coordinates":[[[3.7295939,51.0411924],[3.7297045,51.0412133],[3.7298416,51.0412393],[3.7298184,51.0412807],[3.7297442,51.0412659],[3.7296902,51.0412551],[3.72958,51.0412332],[3.7295939,51.0411924]]]}},{"type":"Feature","id":"way/329892437","properties":{"type":"way","id":329892437,"tags":{"addr:housenumber":"2","addr:street":"Ter Platen","amenity":"pub","building":"yes","building:levels":"3","name":"La Dolce Vita","wheelchair":"no"},"relations":[],"meta":{}},"geometry":{"type":"Polygon","coordinates":[[[3.72958,51.0412332],[3.7296902,51.0412551],[3.7297442,51.0412659],[3.7297263,51.0413098],[3.7296752,51.0412991],[3.7295654,51.0412761],[3.72958,51.0412332]]]}},{"type":"Feature","id":"way/329892438","properties":{"type":"way","id":329892438,"tags":{"addr:housenumber":"1","addr:street":"Ter Platen","amenity":"pub","building":"yes","building:levels":"3","name":"Sunset","roof:levels":"1","roof:shape":"hipped"},"relations":[],"meta":{}},"geometry":{"type":"Polygon","coordinates":[[[3.7295654,51.0412761],[3.7296752,51.0412991],[3.7297263,51.0413098],[3.7297815,51.0413214],[3.7297324,51.041407],[3.729552,51.041364],[3.7295405,51.0413495],[3.7295654,51.0412761]]]}},{"type":"Feature","id":"way/334644985","properties":{"type":"way","id":334644985,"tags":{"addr:housenumber":"165","addr:street":"Tentoonstellingslaan","amenity":"pub","building":"yes","cuisine":"burger","name":"Jilles","opening_hours":"Mo-Su 18:00-23:00; Th,Fr 12:00-15:00,18:00-23:00","opening_hours:kitchen":"Mo-Su 18:00-22:00; Th,Fr 12:00-14:00,18:00-22:00","website":"http://www.jilles.be/"},"relations":[],"meta":{}},"geometry":{"type":"Polygon","coordinates":[[[3.731471,51.0389186],[3.7314653,51.0389087],[3.7314912,51.0388831],[3.7315069,51.038883],[3.7317831,51.0389474],[3.7317466,51.03901],[3.7316504,51.0390594],[3.731471,51.0389186]]]}},{"type":"Feature","id":"way/339405072","properties":{"type":"way","id":339405072,"tags":{"addr:housenumber":"141","addr:street":"Gentstraat","amenity":"pub","building":"yes","name":"De Walput","outdoor_seating":"yes"},"relations":[],"meta":{}},"geometry":{"type":"Polygon","coordinates":[[[3.7579543,51.0920106],[3.758106,51.0919418],[3.7581525,51.0919834],[3.7581448,51.0920813],[3.7579492,51.0920752],[3.7579543,51.0920106]]]}},{"type":"Feature","id":"way/339571134","properties":{"type":"way","id":339571134,"tags":{"addr:street":"Ter Platen","amenity":"pub","building":"boat","description":"knabbel- en babbelcafé","man_made":"boat","name":"De Planck","note":"has no housenumber","outdoor_seating":"yes","website":"http://www.deplanck.be/"},"relations":[],"meta":{}},"geometry":{"type":"Polygon","coordinates":[[[3.7294758,51.0403908],[3.729485,51.0403765],[3.7295066,51.040369],[3.7295308,51.0403717],[3.729547,51.0403834],[3.7295478,51.0403988],[3.7295003,51.0405678],[3.7294978,51.0405765],[3.7294955,51.0405848],[3.7294203,51.0408519],[3.7294105,51.0408661],[3.7293886,51.0408731],[3.7293646,51.0408698],[3.7293493,51.0408577],[3.7293497,51.0408423],[3.7294758,51.0403908]]]}},{"type":"Feature","id":"way/347340571","properties":{"type":"way","id":347340571,"tags":{"amenity":"pub","name":"'t Kofschip"},"relations":[],"meta":{}},"geometry":{"type":"Polygon","coordinates":[[[3.7255863,51.039314],[3.72575,51.0393538],[3.7257238,51.0394183],[3.7255427,51.0393771],[3.7255863,51.039314]]]}},{"type":"Feature","id":"way/347340572","properties":{"type":"way","id":347340572,"tags":{"amenity":"pub","name":"Canard Bizar"},"relations":[],"meta":{}},"geometry":{"type":"Polygon","coordinates":[[[3.7254423,51.0394347],[3.725475,51.0393634],[3.7257216,51.0394237],[3.7256867,51.0394951],[3.7254423,51.0394347]]]}},{"type":"Feature","id":"way/347340573","properties":{"type":"way","id":347340573,"tags":{"amenity":"pub","name":"Confrater"},"relations":[],"meta":{}},"geometry":{"type":"Polygon","coordinates":[[[3.7257675,51.038975],[3.7257893,51.0389119],[3.725977,51.0389352],[3.7259508,51.0390011],[3.7257675,51.038975]]]}},{"type":"Feature","id":"way/347340574","properties":{"type":"way","id":347340574,"tags":{"amenity":"pub","name":"Delirium Tremens"},"relations":[],"meta":{}},"geometry":{"type":"Polygon","coordinates":[[[3.7256387,51.0391932],[3.7256649,51.0391479],[3.725846,51.0391795],[3.725822,51.0392303],[3.7256387,51.0391932]]]}},{"type":"Feature","id":"way/347340575","properties":{"type":"way","id":347340575,"tags":{"amenity":"pub","name":"La Bamba"},"relations":[],"meta":{}},"geometry":{"type":"Polygon","coordinates":[[[3.7257151,51.0391218],[3.7257325,51.0390738],[3.7258831,51.0390985],[3.7258569,51.039152],[3.7257151,51.0391218]]]}},{"type":"Feature","id":"way/371922669","properties":{"type":"way","id":371922669,"tags":{"amenity":"pub","building":"commercial","name":"De Kroon","source":"AGIV aerial 2012"},"relations":[],"meta":{}},"geometry":{"type":"Polygon","coordinates":[[[3.6953034,51.0638784],[3.6952833,51.0638489],[3.6952471,51.063859],[3.6952082,51.0638059],[3.6952672,51.0637831],[3.695302,51.0637899],[3.6953718,51.0638573],[3.6953034,51.0638784]]]}},{"type":"Feature","id":"node/474342771","properties":{"type":"node","id":474342771,"tags":{"addr:housenumber":"8","addr:postcode":"9000","addr:street":"Graaf Arnulfstraat","amenity":"bar","name":"Pi-nuts","payment:bitcoin":"yes","wifi":"no"},"relations":[],"meta":{}},"geometry":{"type":"Point","coordinates":[3.7253747,51.0435443]}},{"type":"Feature","id":"node/566312495","properties":{"type":"node","id":566312495,"tags":{"amenity":"pub","name":"De Biekorf"},"relations":[],"meta":{}},"geometry":{"type":"Point","coordinates":[3.7136877,51.0500667]}},{"type":"Feature","id":"node/602681356","properties":{"type":"node","id":602681356,"tags":{"addr:housenumber":"5","addr:postcode":"9000","addr:street":"Sintmichielshelling","amenity":"pub","name":"The Celtic Towers"},"relations":[],"meta":{}},"geometry":{"type":"Point","coordinates":[3.721227,51.0537928]}},{"type":"Feature","id":"node/637029616","properties":{"type":"node","id":637029616,"tags":{"amenity":"pub","name":"Denis Foley's"},"relations":[],"meta":{}},"geometry":{"type":"Point","coordinates":[3.7209793,51.0551024]}},{"type":"Feature","id":"node/663056470","properties":{"type":"node","id":663056470,"tags":{"addr:housenumber":"37","addr:postcode":"9030","addr:street":"Groenestaakstraat","amenity":"bar","name":"Parkkaffee"},"relations":[],"meta":{}},"geometry":{"type":"Point","coordinates":[3.6769306,51.0802588]}},{"type":"Feature","id":"node/772451500","properties":{"type":"node","id":772451500,"tags":{"amenity":"pub","name":"The Zone"},"relations":[],"meta":{}},"geometry":{"type":"Point","coordinates":[3.7069682,51.0314645]}},{"type":"Feature","id":"node/818880393","properties":{"type":"node","id":818880393,"tags":{"amenity":"pub","name":"'T einde"},"relations":[],"meta":{}},"geometry":{"type":"Point","coordinates":[3.7209186,51.0565297]}},{"type":"Feature","id":"node/818880401","properties":{"type":"node","id":818880401,"tags":{"amenity":"pub","name":"'t geduld"},"relations":[],"meta":{}},"geometry":{"type":"Point","coordinates":[3.7209734,51.0564568]}},{"type":"Feature","id":"node/818880408","properties":{"type":"node","id":818880408,"tags":{"amenity":"bar","name":"The Mix"},"relations":[],"meta":{}},"geometry":{"type":"Point","coordinates":[3.721634,51.0568958]}},{"type":"Feature","id":"node/895726826","properties":{"type":"node","id":895726826,"tags":{"addr:street":"Sint-Veerleplein","amenity":"pub","name":"Zénon"},"relations":[],"meta":{}},"geometry":{"type":"Point","coordinates":[3.720948,51.0564909]}},{"type":"Feature","id":"node/1096073099","properties":{"type":"node","id":1096073099,"tags":{"amenity":"pub"},"relations":[],"meta":{}},"geometry":{"type":"Point","coordinates":[3.6553104,51.0477101]}},{"type":"Feature","id":"node/1186342694","properties":{"type":"node","id":1186342694,"tags":{"amenity":"bar","name":"Daskalides"},"relations":[],"meta":{}},"geometry":{"type":"Point","coordinates":[3.7254836,51.057614]}},{"type":"Feature","id":"node/1186357678","properties":{"type":"node","id":1186357678,"tags":{"amenity":"bar","name":"K27"},"relations":[],"meta":{}},"geometry":{"type":"Point","coordinates":[3.7259356,51.0574126]}},{"type":"Feature","id":"node/1186945843","properties":{"type":"node","id":1186945843,"tags":{"amenity":"bar","name":"Damass"},"relations":[],"meta":{}},"geometry":{"type":"Point","coordinates":[3.7221337,51.0552056]}},{"type":"Feature","id":"node/1187174979","properties":{"type":"node","id":1187174979,"tags":{"amenity":"pub","name":"'t Vrijdagsgevoel"},"relations":[],"meta":{}},"geometry":{"type":"Point","coordinates":[3.7266759,51.0569085]}},{"type":"Feature","id":"node/1187211187","properties":{"type":"node","id":1187211187,"tags":{"amenity":"pub","name":"De Dulle Griet"},"relations":[],"meta":{}},"geometry":{"type":"Point","coordinates":[3.7252557,51.056557]}},{"type":"Feature","id":"node/1187211203","properties":{"type":"node","id":1187211203,"tags":{"amenity":"pub","name":"Café De Croone"},"relations":[],"meta":{}},"geometry":{"type":"Point","coordinates":[3.725599,51.0564448]}},{"type":"Feature","id":"node/1201714037","properties":{"type":"node","id":1201714037,"tags":{"amenity":"pub","name":"Jan van Gent"},"relations":[],"meta":{}},"geometry":{"type":"Point","coordinates":[3.7170535,51.0498836]}},{"type":"Feature","id":"node/1201714038","properties":{"type":"node","id":1201714038,"tags":{"addr:city":"Gent","addr:housenumber":"3","addr:postcode":"9000","addr:street":"Molenaarsstraat","amenity":"pub","name":"'t Floere Foefke"},"relations":[],"meta":{}},"geometry":{"type":"Point","coordinates":[3.7185744,51.0595215]}},{"type":"Feature","id":"node/1266857745","properties":{"type":"node","id":1266857745,"tags":{"amenity":"bar","name":"Club 1847"},"relations":[],"meta":{}},"geometry":{"type":"Point","coordinates":[3.7260968,51.0579691]}},{"type":"Feature","id":"node/1271854675","properties":{"type":"node","id":1271854675,"tags":{"amenity":"pub","name":"Amber"},"relations":[],"meta":{}},"geometry":{"type":"Point","coordinates":[3.7258587,51.0438794]}},{"type":"Feature","id":"node/1271854677","properties":{"type":"node","id":1271854677,"tags":{"amenity":"pub","name":"Bierologie"},"relations":[],"meta":{}},"geometry":{"type":"Point","coordinates":[3.7250597,51.0415989]}},{"type":"Feature","id":"node/1275915799","properties":{"type":"node","id":1275915799,"tags":{"amenity":"pub","name":"Fabiola"},"relations":[],"meta":{}},"geometry":{"type":"Point","coordinates":[3.7248426,51.0435598]}},{"type":"Feature","id":"node/1275923547","properties":{"type":"node","id":1275923547,"tags":{"amenity":"pub","name":"Krawietelke"},"relations":[],"meta":{}},"geometry":{"type":"Point","coordinates":[3.7256449,51.0438167]}},{"type":"Feature","id":"node/1279170987","properties":{"type":"node","id":1279170987,"tags":{"amenity":"pub","name":"Hotsy Totsy"},"relations":[],"meta":{}},"geometry":{"type":"Point","coordinates":[3.7165378,51.0543408]}},{"type":"Feature","id":"node/1279181694","properties":{"type":"node","id":1279181694,"tags":{"amenity":"bar","name":"Tijuana"},"relations":[],"meta":{}},"geometry":{"type":"Point","coordinates":[3.7216313,51.0534851]}},{"type":"Feature","id":"node/1280135826","properties":{"type":"node","id":1280135826,"tags":{"amenity":"bar","name":"Lime Club"},"relations":[],"meta":{}},"geometry":{"type":"Point","coordinates":[3.7254105,51.0410183]}},{"type":"Feature","id":"node/1280135838","properties":{"type":"node","id":1280135838,"tags":{"amenity":"pub","name":"Salto"},"relations":[],"meta":{}},"geometry":{"type":"Point","coordinates":[3.7254199,51.0407999]}},{"type":"Feature","id":"node/1297490736","properties":{"type":"node","id":1297490736,"tags":{"amenity":"pub","name":"De Meersbloem","wifi":"no"},"relations":[],"meta":{}},"geometry":{"type":"Point","coordinates":[3.7176487,50.9866392]}},{"type":"Feature","id":"node/1316010993","properties":{"type":"node","id":1316010993,"tags":{"addr:city":"Gent","addr:country":"BE","addr:housenumber":"55","addr:postcode":"9000","addr:street":"onderstraat","amenity":"pub","name":"Pink Flamingo's"},"relations":[],"meta":{}},"geometry":{"type":"Point","coordinates":[3.7256716,51.0557938]}},{"type":"Feature","id":"node/1318716467","properties":{"type":"node","id":1318716467,"tags":{"amenity":"pub","food":"yes","name":"Novice"},"relations":[],"meta":{}},"geometry":{"type":"Point","coordinates":[3.6773387,51.0197294]}},{"type":"Feature","id":"node/1337473742","properties":{"type":"node","id":1337473742,"tags":{"amenity":"pub","name":"'t Gouden Hoofd","wheelchair":"limited"},"relations":[],"meta":{}},"geometry":{"type":"Point","coordinates":[3.7383333,51.052815]}},{"type":"Feature","id":"node/1357503893","properties":{"type":"node","id":1357503893,"tags":{"amenity":"bar","name":"Culture Club"},"relations":[],"meta":{}},"geometry":{"type":"Point","coordinates":[3.7392562,51.0668313]}},{"type":"Feature","id":"node/1381892995","properties":{"type":"node","id":1381892995,"tags":{"amenity":"pub","name":"De Sorre"},"relations":[],"meta":{}},"geometry":{"type":"Point","coordinates":[3.7212165,51.0564558]}},{"type":"Feature","id":"node/1381910682","properties":{"type":"node","id":1381910682,"tags":{"amenity":"pub","name":"Waterhuis aan de Bierkant","website":"http://www.waterhuisaandebierkant.be"},"relations":[],"meta":{}},"geometry":{"type":"Point","coordinates":[3.7224589,51.0564222]}},{"type":"Feature","id":"node/1381910690","properties":{"type":"node","id":1381910690,"tags":{"amenity":"bar","name":"Hot Club de Gand"},"relations":[],"meta":{}},"geometry":{"type":"Point","coordinates":[3.7226405,51.0563166]}},{"type":"Feature","id":"node/1508448544","properties":{"type":"node","id":1508448544,"tags":{"amenity":"pub","name":"de Robot"},"relations":[],"meta":{}},"geometry":{"type":"Point","coordinates":[3.7160492,51.0461063]}},{"type":"Feature","id":"node/1532794990","properties":{"type":"node","id":1532794990,"tags":{"addr:city":"Gent centrum","addr:housenumber":"19","addr:postcode":"9000","addr:street":"Korenmarkt","amenity":"pub","name":"Damberd","website":"http://www.damberd.be/"},"relations":[],"meta":{}},"geometry":{"type":"Point","coordinates":[3.7215071,51.0547491]}},{"type":"Feature","id":"node/1532795016","properties":{"type":"node","id":1532795016,"tags":{"addr:city":"Gent centrum","addr:housenumber":"18","addr:postcode":"9000","addr:street":"Korenmarkt","amenity":"bar","name":"5 voor 12","payment:bitcoin":"yes","website":"http://www.vijfvoortwaalf.be/","wheelchair":"limited"},"relations":[],"meta":{}},"geometry":{"type":"Point","coordinates":[3.7215045,51.0547053]}},{"type":"Feature","id":"node/1532798358","properties":{"type":"node","id":1532798358,"tags":{"addr:housenumber":"3","addr:postcode":"9000","addr:street":"Pensmarkt","amenity":"pub","name":"Het spijker","wifi":"no"},"relations":[],"meta":{}},"geometry":{"type":"Point","coordinates":[3.7212725,51.0555947]}},{"type":"Feature","id":"node/1534198809","properties":{"type":"node","id":1534198809,"tags":{"amenity":"pub","name":"Trefpunt","website":"http://www.trefpunt.be/"},"relations":[],"meta":{}},"geometry":{"type":"Point","coordinates":[3.7271175,51.0561469]}},{"type":"Feature","id":"node/1534198820","properties":{"type":"node","id":1534198820,"tags":{"amenity":"pub","brewery":"chouffe;leffe;tripel_karmeliet;chimay","name":"Trollenkelder"},"relations":[],"meta":{}},"geometry":{"type":"Point","coordinates":[3.7272704,51.0560854]}},{"type":"Feature","id":"node/1536597182","properties":{"type":"node","id":1536597182,"tags":{"amenity":"pub","name":"De platte beurs","wheelchair":"no"},"relations":[],"meta":{}},"geometry":{"type":"Point","coordinates":[3.7225106,51.0543786]}},{"type":"Feature","id":"node/1536600694","properties":{"type":"node","id":1536600694,"tags":{"amenity":"pub","name":"De Maecht van Gent","wifi":"yes"},"relations":[],"meta":{}},"geometry":{"type":"Point","coordinates":[3.7223192,51.054807]}},{"type":"Feature","id":"node/1546437644","properties":{"type":"node","id":1546437644,"tags":{"addr:street":"Rekelingestraat","amenity":"bar","name":"De Alchemist"},"relations":[],"meta":{}},"geometry":{"type":"Point","coordinates":[3.7206473,51.0566334]}},{"type":"Feature","id":"node/1546438179","properties":{"type":"node","id":1546438179,"tags":{"addr:street":"Groentenmarkt","amenity":"bar","brewery":"Primus;Kriek Mystic;Tongerlo Blond;Tongerlo Bruin;Keizer Karel Blond","internet_access":"no","name":"'t Galgenhuisje","opening_hours":"Mo-Su 10:00+"},"relations":[],"meta":{}},"geometry":{"type":"Point","coordinates":[3.7220492,51.0560284]}},{"type":"Feature","id":"node/1585043892","properties":{"type":"node","id":1585043892,"tags":{"amenity":"pub","name":"De Kleine Kunst"},"relations":[],"meta":{}},"geometry":{"type":"Point","coordinates":[3.7393772,51.0475351]}},{"type":"Feature","id":"node/1598836964","properties":{"type":"node","id":1598836964,"tags":{"amenity":"pub","name":"De Karper"},"relations":[],"meta":{}},"geometry":{"type":"Point","coordinates":[3.7187957,51.0419143]}},{"type":"Feature","id":"node/1603623322","properties":{"type":"node","id":1603623322,"tags":{"amenity":"pub","name":"Café Afsnis"},"relations":[],"meta":{}},"geometry":{"type":"Point","coordinates":[3.7274134,51.0569695]}},{"type":"Feature","id":"node/1603630972","properties":{"type":"node","id":1603630972,"tags":{"amenity":"pub"},"relations":[],"meta":{}},"geometry":{"type":"Point","coordinates":[3.7269145,51.0568295]}},{"type":"Feature","id":"node/1603630998","properties":{"type":"node","id":1603630998,"tags":{"amenity":"pub"},"relations":[],"meta":{}},"geometry":{"type":"Point","coordinates":[3.7244777,51.0574567]}},{"type":"Feature","id":"node/1627612971","properties":{"type":"node","id":1627612971,"tags":{"amenity":"pub","name":"Geuzenhuis","wheelchair":"yes"},"relations":[],"meta":{}},"geometry":{"type":"Point","coordinates":[3.7287704,51.0414415]}},{"type":"Feature","id":"node/1628067349","properties":{"type":"node","id":1628067349,"tags":{"amenity":"pub","name":"Belleman"},"relations":[],"meta":{}},"geometry":{"type":"Point","coordinates":[3.7254995,51.0541489]}},{"type":"Feature","id":"node/1628067355","properties":{"type":"node","id":1628067355,"tags":{"amenity":"pub","name":"De muze"},"relations":[],"meta":{}},"geometry":{"type":"Point","coordinates":[3.7317096,51.048626]}},{"type":"Feature","id":"node/1628067357","properties":{"type":"node","id":1628067357,"tags":{"amenity":"pub","name":"Dynasty"},"relations":[],"meta":{}},"geometry":{"type":"Point","coordinates":[3.7309231,51.0542903]}},{"type":"Feature","id":"node/1628067365","properties":{"type":"node","id":1628067365,"tags":{"amenity":"pub","name":"Manteca"},"relations":[],"meta":{}},"geometry":{"type":"Point","coordinates":[3.7226008,51.0535928]}},{"type":"Feature","id":"node/1628067373","properties":{"type":"node","id":1628067373,"tags":{"amenity":"pub","name":"Parels"},"relations":[],"meta":{}},"geometry":{"type":"Point","coordinates":[3.7294832,51.0561278]}},{"type":"Feature","id":"node/1628067376","properties":{"type":"node","id":1628067376,"tags":{"amenity":"pub","name":"Plansjee","wheelchair":"no"},"relations":[],"meta":{}},"geometry":{"type":"Point","coordinates":[3.7252306,51.0549043]}},{"type":"Feature","id":"node/1628067378","properties":{"type":"node","id":1628067378,"tags":{"amenity":"pub","name":"Spring's"},"relations":[],"meta":{}},"geometry":{"type":"Point","coordinates":[3.7318602,51.0486649]}},{"type":"Feature","id":"node/1628067383","properties":{"type":"node","id":1628067383,"tags":{"amenity":"pub","name":"Vaudeville"},"relations":[],"meta":{}},"geometry":{"type":"Point","coordinates":[3.7216729,51.0550318]}},{"type":"Feature","id":"node/1628067384","properties":{"type":"node","id":1628067384,"tags":{"amenity":"pub","name":"Video"},"relations":[],"meta":{}},"geometry":{"type":"Point","coordinates":[3.7314673,51.0544851]}},{"type":"Feature","id":"node/1628099997","properties":{"type":"node","id":1628099997,"tags":{"amenity":"bar","name":"de Ratz"},"relations":[],"meta":{}},"geometry":{"type":"Point","coordinates":[3.7216249,51.0498596]}},{"type":"Feature","id":"node/1628142343","properties":{"type":"node","id":1628142343,"tags":{"amenity":"pub","name":"Capri"},"relations":[],"meta":{}},"geometry":{"type":"Point","coordinates":[3.7429114,51.058327]}},{"type":"Feature","id":"node/1628142347","properties":{"type":"node","id":1628142347,"tags":{"amenity":"pub","name":"De Zevende Hemel"},"relations":[],"meta":{}},"geometry":{"type":"Point","coordinates":[3.7380771,51.0569443]}},{"type":"Feature","id":"node/1628210599","properties":{"type":"node","id":1628210599,"tags":{"amenity":"pub","name":"Boer Janssens"},"relations":[],"meta":{}},"geometry":{"type":"Point","coordinates":[3.774881,51.0414244]}},{"type":"Feature","id":"node/1628297819","properties":{"type":"node","id":1628297819,"tags":{"amenity":"pub","name":"Eltus"},"relations":[],"meta":{}},"geometry":{"type":"Point","coordinates":[3.741871,51.0578847]}},{"type":"Feature","id":"node/1628297841","properties":{"type":"node","id":1628297841,"tags":{"amenity":"pub","name":"Sporthoek"},"relations":[],"meta":{}},"geometry":{"type":"Point","coordinates":[3.7786468,51.0741332]}},{"type":"Feature","id":"node/1631092862","properties":{"type":"node","id":1631092862,"tags":{"amenity":"pub","name":"Speaker's corner"},"relations":[],"meta":{}},"geometry":{"type":"Point","coordinates":[3.726121,51.0381535]}},{"type":"Feature","id":"node/1804197204","properties":{"type":"node","id":1804197204,"tags":{"addr:housenumber":"69","addr:street":"Nederkouter","amenity":"pub","name":"Kapitein Cravate"},"relations":[],"meta":{}},"geometry":{"type":"Point","coordinates":[3.7218414,51.047518]}},{"type":"Feature","id":"node/1804213105","properties":{"type":"node","id":1804213105,"tags":{"amenity":"pub","internet_access":"wlan","name":"Backstay Bar","opening_hours":"Mo-Su 10:00+","website":"http://www.backstaybar.be"},"relations":[],"meta":{}},"geometry":{"type":"Point","coordinates":[3.7270125,51.0472421]}},{"type":"Feature","id":"node/1814843960","properties":{"type":"node","id":1814843960,"tags":{"amenity":"pub","name":"Christel Decibel"},"relations":[],"meta":{}},"geometry":{"type":"Point","coordinates":[3.7706419,51.0809489]}},{"type":"Feature","id":"node/1833866896","properties":{"type":"node","id":1833866896,"tags":{"amenity":"pub","name":"Pallieter"},"relations":[],"meta":{}},"geometry":{"type":"Point","coordinates":[3.6628965,51.0510478]}},{"type":"Feature","id":"node/1833866898","properties":{"type":"node","id":1833866898,"tags":{"amenity":"pub","food":"yes","name":"Grand Café","phone":"09 253 59 00"},"relations":[],"meta":{}},"geometry":{"type":"Point","coordinates":[3.6631648,51.0504846]}},{"type":"Feature","id":"node/1833871398","properties":{"type":"node","id":1833871398,"tags":{"amenity":"pub","name":"d'Abdij"},"relations":[],"meta":{}},"geometry":{"type":"Point","coordinates":[3.6645517,51.0503339]}},{"type":"Feature","id":"node/1853026293","properties":{"type":"node","id":1853026293,"tags":{"amenity":"pub","name":"Cambrinus","outdoor_seating":"yes"},"relations":[],"meta":{}},"geometry":{"type":"Point","coordinates":[3.6622013,51.0522369]}},{"type":"Feature","id":"node/1853026294","properties":{"type":"node","id":1853026294,"tags":{"amenity":"pub","food":"no","name":"De Dageraad"},"relations":[],"meta":{}},"geometry":{"type":"Point","coordinates":[3.6610104,51.0520143]}},{"type":"Feature","id":"node/1853026295","properties":{"type":"node","id":1853026295,"tags":{"amenity":"pub","outside_seating":"yes"},"relations":[],"meta":{}},"geometry":{"type":"Point","coordinates":[3.6611767,51.0545046]}},{"type":"Feature","id":"node/1877596568","properties":{"type":"node","id":1877596568,"tags":{"amenity":"pub","name":"Lambert"},"relations":[],"meta":{}},"geometry":{"type":"Point","coordinates":[3.7161699,51.0462522]}},{"type":"Feature","id":"node/1914073982","properties":{"type":"node","id":1914073982,"tags":{"amenity":"bar","name":"Zoo"},"relations":[],"meta":{}},"geometry":{"type":"Point","coordinates":[3.7239377,51.0578477]}},{"type":"Feature","id":"node/1949557489","properties":{"type":"node","id":1949557489,"tags":{"amenity":"pub","name":"Plan B"},"relations":[],"meta":{}},"geometry":{"type":"Point","coordinates":[3.7211311,51.0464888]}},{"type":"Feature","id":"node/1964413905","properties":{"type":"node","id":1964413905,"tags":{"amenity":"pub","food":"no","name":"bij Tine en Kurt"},"relations":[],"meta":{}},"geometry":{"type":"Point","coordinates":[3.6192567,51.0370679]}},{"type":"Feature","id":"node/1978427862","properties":{"type":"node","id":1978427862,"tags":{"amenity":"pub","food":"yes","internet_access":"wlan","layer":"-1","name":"Belfort Stadscafé","outdoor_seating":"yes","wheelchair":"yes"},"relations":[],"meta":{}},"geometry":{"type":"Point","coordinates":[3.7242703,51.0539277]}},{"type":"Feature","id":"node/1996995184","properties":{"type":"node","id":1996995184,"tags":{"amenity":"pub","food":"no","name":"'t Zwaantje"},"relations":[],"meta":{}},"geometry":{"type":"Point","coordinates":[3.6688214,51.0231432]}},{"type":"Feature","id":"node/2084451567","properties":{"type":"node","id":2084451567,"tags":{"amenity":"pub","name":"KASK café"},"relations":[],"meta":{}},"geometry":{"type":"Point","coordinates":[3.7152578,51.0453772]}},{"type":"Feature","id":"node/2184464273","properties":{"type":"node","id":2184464273,"tags":{"amenity":"pub","food":"no","outdoor_seating":"yes"},"relations":[],"meta":{}},"geometry":{"type":"Point","coordinates":[3.7764698,51.1455733]}},{"type":"Feature","id":"node/2268895234","properties":{"type":"node","id":2268895234,"tags":{"addr:housenumber":"15","addr:postcode":"9000","addr:street":"Sluizeken","amenity":"bar","name":"Mizrap vzw","website":"http://www.facebook.com/MizrapVzw/"},"relations":[],"meta":{}},"geometry":{"type":"Point","coordinates":[3.7245919,51.0596981]}},{"type":"Feature","id":"node/2273855341","properties":{"type":"node","id":2273855341,"tags":{"addr:city":"Gent","addr:housenumber":"49","addr:street":"Mageleinstraat","amenity":"pub","name":"Amfora","phone":"09 225 19 79"},"relations":[],"meta":{}},"geometry":{"type":"Point","coordinates":[3.7249339,51.0524963]}},{"type":"Feature","id":"node/2275104991","properties":{"type":"node","id":2275104991,"tags":{"amenity":"pub"},"relations":[],"meta":{}},"geometry":{"type":"Point","coordinates":[3.7230136,51.030112]}},{"type":"Feature","id":"node/2275116529","properties":{"type":"node","id":2275116529,"tags":{"amenity":"pub","name":"'t Zwijntje"},"relations":[],"meta":{}},"geometry":{"type":"Point","coordinates":[3.7260257,51.0355737]}},{"type":"Feature","id":"node/2283352358","properties":{"type":"node","id":2283352358,"tags":{"amenity":"pub","name":"De Zavelput"},"relations":[],"meta":{}},"geometry":{"type":"Point","coordinates":[3.6217018,51.0472833]}},{"type":"Feature","id":"node/2402543237","properties":{"type":"node","id":2402543237,"tags":{"addr:housenumber":"17","addr:street":"Walpoortstraat","amenity":"pub","name":"Marimain"},"relations":[],"meta":{}},"geometry":{"type":"Point","coordinates":[3.7273274,51.0487669]}},{"type":"Feature","id":"node/2415921099","properties":{"type":"node","id":2415921099,"tags":{"amenity":"pub","name":"Dok"},"relations":[],"meta":{}},"geometry":{"type":"Point","coordinates":[3.7381042,51.062675]}},{"type":"Feature","id":"node/2415921104","properties":{"type":"node","id":2415921104,"tags":{"amenity":"bar","name":"Dok"},"relations":[],"meta":{}},"geometry":{"type":"Point","coordinates":[3.737275,51.0640514]}},{"type":"Feature","id":"node/2441407152","properties":{"type":"node","id":2441407152,"tags":{"amenity":"pub","name":"De Kroon"},"relations":[],"meta":{}},"geometry":{"type":"Point","coordinates":[3.7253361,51.0421608]}},{"type":"Feature","id":"node/2494841854","properties":{"type":"node","id":2494841854,"tags":{"amenity":"pub","name":"De Zwaan"},"relations":[],"meta":{}},"geometry":{"type":"Point","coordinates":[3.7401706,51.1113149]}},{"type":"Feature","id":"node/2555139392","properties":{"type":"node","id":2555139392,"tags":{"OnroerendErfgoed:criteria":"M","addr:housenumber":"497","addr:street":"Coupure","amenity":"pub","description":"Breedhuis","heritage":"4","heritage:operator":"OnroerendErfgoed","heritage:website":"https://inventaris.onroerenderfgoed.be/dibe/relict/20236","image":"File:Brasserienapoleon.JPG","name":"Café De Walrus","ref:OnroerendErfgoed":"20236"},"relations":[],"meta":{}},"geometry":{"type":"Point","coordinates":[3.7101423,51.0502348]}},{"type":"Feature","id":"node/2584535116","properties":{"type":"node","id":2584535116,"tags":{"OnroerendErfgoed:criteria":"M","addr:housenumber":"8","addr:street":"Platteberg","amenity":"pub","description":"Stapelruimte","email":"SIOUXCAFE@GMAIL.COM","heritage":"4","heritage:operator":"OnroerendErfgoed","heritage:website":"https://inventaris.onroerenderfgoed.be/dibe/relict/20932","name":"Sioux","phone":"0473 473 001","ref:OnroerendErfgoed":"20932","website":"www.siouxcafe.be"},"relations":[],"meta":{}},"geometry":{"type":"Point","coordinates":[3.7282869,51.0488011]}},{"type":"Feature","id":"node/2591395188","properties":{"type":"node","id":2591395188,"tags":{"addr:city":"Gent","addr:housename":"Kinky Star Muziekcentrum","addr:housenumber":"9","addr:postcode":"9000","addr:street":"Vlasmarkt","amenity":"bar","internet_access":"9,_9000_Gent_","name":"Kinky Star","phone":"+329 223 48 45","website":"http://www.kinkystar.com/"},"relations":[],"meta":{}},"geometry":{"type":"Point","coordinates":[3.7284978,51.0558889]}},{"type":"Feature","id":"node/2591395189","properties":{"type":"node","id":2591395189,"tags":{"addr:city":"Gent","addr:housename":"Bar Jos","addr:housenumber":"7","addr:postcode":"9000","addr:street":"Vlasmarkt","amenity":"bar","cuisine":"boterhammen","name":"Jos"},"relations":[],"meta":{}},"geometry":{"type":"Point","coordinates":[3.728471,51.0559381]}},{"type":"Feature","id":"node/2591395190","properties":{"type":"node","id":2591395190,"tags":{"addr:city":"Gent","addr:housename":"Muziekcafé Charlatan","addr:housenumber":"6","addr:postcode":"9000","addr:street":"Vlasmarkt","amenity":"bar","name":"Charlatan","website":"http://www.charlatan.be/"},"relations":[],"meta":{}},"geometry":{"type":"Point","coordinates":[3.7284488,51.055988]}},{"type":"Feature","id":"node/2591395191","properties":{"type":"node","id":2591395191,"tags":{"addr:city":"Gent","addr:housename":"Bar Des Amis","addr:postcode":"9000","addr:street":"Vlasmarkt","amenity":"bar","name":"Bar Des Amis","website":"https://www.facebook.com/bardesamisgent"},"relations":[],"meta":{}},"geometry":{"type":"Point","coordinates":[3.7284138,51.0560482]}},{"type":"Feature","id":"node/2712612538","properties":{"type":"node","id":2712612538,"tags":{"addr:city":"Gent","addr:housenumber":"10","addr:postcode":"9000","addr:street":"Recollettenlei","amenity":"pub","name":"Patrick Foleys Irish Bar & Restaurant"},"relations":[],"meta":{}},"geometry":{"type":"Point","coordinates":[3.7195835,51.0500416]}},{"type":"Feature","id":"node/2714065460","properties":{"type":"node","id":2714065460,"tags":{"amenity":"bar","name":"Café Centraal"},"relations":[],"meta":{}},"geometry":{"type":"Point","coordinates":[3.756946,51.0253256]}},{"type":"Feature","id":"node/2716612094","properties":{"type":"node","id":2716612094,"tags":{"amenity":"bar","name":"De Miku"},"relations":[],"meta":{}},"geometry":{"type":"Point","coordinates":[3.7615447,51.0335191]}},{"type":"Feature","id":"node/3139795094","properties":{"type":"node","id":3139795094,"tags":{"amenity":"bar"},"relations":[],"meta":{}},"geometry":{"type":"Point","coordinates":[3.7309293,51.0735557]}},{"type":"Feature","id":"node/3167415121","properties":{"type":"node","id":3167415121,"tags":{"amenity":"pub","name":"Tempus Fugit"},"relations":[],"meta":{}},"geometry":{"type":"Point","coordinates":[3.7115146,51.035971]}},{"type":"Feature","id":"node/3213420688","properties":{"type":"node","id":3213420688,"tags":{"amenity":"pub","name":"Monty"},"relations":[],"meta":{}},"geometry":{"type":"Point","coordinates":[3.7419064,51.0465808]}},{"type":"Feature","id":"node/3277533431","properties":{"type":"node","id":3277533431,"tags":{"addr:city":"Gent","addr:housenumber":"1","addr:postcode":"9000","addr:street":"Sint-Michielsstraat","amenity":"pub","email":"cafebornhem@gmail.com","name":"Café Bornhem"},"relations":[],"meta":{}},"geometry":{"type":"Point","coordinates":[3.7183104,51.0537374]}},{"type":"Feature","id":"node/3367536294","properties":{"type":"node","id":3367536294,"tags":{"amenity":"bar","name":"Seven"},"relations":[],"meta":{}},"geometry":{"type":"Point","coordinates":[3.7304225,51.040424]}},{"type":"Feature","id":"node/3392860010","properties":{"type":"node","id":3392860010,"tags":{"addr:housenumber":"5","addr:street":"Kramersplein","amenity":"bar","contact:email":"info@barjancremer.be","contact:facebook":"https://www.facebook.com/barjancremer","contact:phone":"+32 474 24 85 93","name":"Jan Cremer"},"relations":[],"meta":{}},"geometry":{"type":"Point","coordinates":[3.7259837,51.0413633]}},{"type":"Feature","id":"node/3394539392","properties":{"type":"node","id":3394539392,"tags":{"addr:city":"Gent","addr:street":"Vlaanderenstraat","amenity":"bar","name":"Bar Hasard"},"relations":[],"meta":{}},"geometry":{"type":"Point","coordinates":[3.7306058,51.0498537]}},{"type":"Feature","id":"node/3394542494","properties":{"type":"node","id":3394542494,"tags":{"addr:city":"Gent","addr:postcode":"9000","addr:street":"Brabantdam","amenity":"bar","name":"El Negocito"},"relations":[],"meta":{}},"geometry":{"type":"Point","coordinates":[3.7319362,51.0497726]}},{"type":"Feature","id":"node/3518966139","properties":{"type":"node","id":3518966139,"tags":{"addr:city":"Gentbrugge","addr:housenumber":"4","addr:postcode":"9050","addr:street":"Schooldreef","amenity":"bar","name":"De Sportvriend"},"relations":[],"meta":{}},"geometry":{"type":"Point","coordinates":[3.7614031,51.0323032]}},{"type":"Feature","id":"node/3523526281","properties":{"type":"node","id":3523526281,"tags":{"amenity":"bar","name":"De Nachtegaal"},"relations":[],"meta":{}},"geometry":{"type":"Point","coordinates":[3.7798113,51.0388842]}},{"type":"Feature","id":"node/3817797701","properties":{"type":"node","id":3817797701,"tags":{"amenity":"pub","name":"De Kleine Comptoir"},"relations":[],"meta":{}},"geometry":{"type":"Point","coordinates":[3.7267537,51.0418662]}},{"type":"Feature","id":"node/3817797814","properties":{"type":"node","id":3817797814,"tags":{"amenity":"pub","name":"'t Unief"},"relations":[],"meta":{}},"geometry":{"type":"Point","coordinates":[3.7263435,51.044443]}},{"type":"Feature","id":"node/3817855013","properties":{"type":"node","id":3817855013,"tags":{"amenity":"pub","name":"De Omgekeerde Wereld","opening_hours":"Mo-Fr 11:45+; Sa 19:00+","phone":"+32 498 62 74 10","website":"http://www.de-omgekeerde-wereld.be/"},"relations":[],"meta":{}},"geometry":{"type":"Point","coordinates":[3.7271089,51.0475502]}},{"type":"Feature","id":"node/3817855015","properties":{"type":"node","id":3817855015,"tags":{"amenity":"pub","internet_access":"wlan","name":"Vooruit","outdoor_seating":"yes","website":"http://vooruit.be/","wheelchair":"limited"},"relations":[],"meta":{}},"geometry":{"type":"Point","coordinates":[3.7275024,51.0476615]}},{"type":"Feature","id":"node/3827722275","properties":{"type":"node","id":3827722275,"tags":{"amenity":"pub","name":"Studentencafé De Hoeve","website":"http://www.cafedehoevegent.be/"},"relations":[],"meta":{}},"geometry":{"type":"Point","coordinates":[3.7265267,51.0453449]}},{"type":"Feature","id":"node/3842499428","properties":{"type":"node","id":3842499428,"tags":{"addr:city":"Gent","addr:housenumber":"33","addr:postcode":"9000","addr:street":"Sint-Michielsstraat","amenity":"pub","name":"Café De Poel"},"relations":[],"meta":{}},"geometry":{"type":"Point","coordinates":[3.7172974,51.0543002]}},{"type":"Feature","id":"node/3967075951","properties":{"type":"node","id":3967075951,"tags":{"amenity":"pub"},"relations":[],"meta":{}},"geometry":{"type":"Point","coordinates":[3.7449934,51.0431701]}},{"type":"Feature","id":"node/3967079258","properties":{"type":"node","id":3967079258,"tags":{"amenity":"pub"},"relations":[],"meta":{}},"geometry":{"type":"Point","coordinates":[3.7593887,51.0445272]}},{"type":"Feature","id":"node/3967087159","properties":{"type":"node","id":3967087159,"tags":{"amenity":"pub","name":"Praatcafé 't Spoorke"},"relations":[],"meta":{}},"geometry":{"type":"Point","coordinates":[3.7540163,51.0411585]}},{"type":"Feature","id":"node/4127522155","properties":{"type":"node","id":4127522155,"tags":{"amenity":"bar","name":"Den Buro"},"relations":[],"meta":{}},"geometry":{"type":"Point","coordinates":[3.7334947,51.0392027]}},{"type":"Feature","id":"node/4185930155","properties":{"type":"node","id":4185930155,"tags":{"amenity":"pub","name":"'t Schuurken"},"relations":[],"meta":{}},"geometry":{"type":"Point","coordinates":[3.6968161,51.0630917]}},{"type":"Feature","id":"node/4195825609","properties":{"type":"node","id":4195825609,"tags":{"addr:housenumber":"56","addr:street":"Ottogracht","amenity":"bar","internet_access":"wlan","name":"Minor Swing","website":"www.facebook.com/minorswinggent"},"relations":[],"meta":{}},"geometry":{"type":"Point","coordinates":[3.7268878,51.0590182]}},{"type":"Feature","id":"node/4228027490","properties":{"type":"node","id":4228027490,"tags":{"amenity":"pub","name":"St. Hubert"},"relations":[],"meta":{}},"geometry":{"type":"Point","coordinates":[3.7211959,51.0437211]}},{"type":"Feature","id":"node/4231814743","properties":{"type":"node","id":4231814743,"tags":{"addr:housenumber":"19A","addr:street":"Gandastraat","amenity":"pub","name":"De Buffel","website":"http://www.debuffel.be/"},"relations":[],"meta":{}},"geometry":{"type":"Point","coordinates":[3.737858,51.053786]}}]}
